UMBRA-07                
1 58297U 23174AT  26197.14224543  .00004350  00000+0  27426-3 0  9993
2 58297  97.3779 251.8154 0002197  17.9138 342.2169 15.09629390147787
UMBRA-09                
1 60541U 24149CB  26197.19406176  .00008827  00000+0  42666-3 0  9996
2 60541  97.6973 284.9133 0002069 200.1569 159.9583 15.18868590105129
UMBRA-10                
1 60547U 24149CH  26197.19360685  .00008620  00000+0  41673-3 0  9994
2 60547  97.6979 284.9427 0001690 165.4264 194.7019 15.18867080105136
UMBRA-11                
1 66748U 25276CL  26197.21544090  .00011323  00000+0  41947-3 0  9990
2 66748  97.4189 271.6866 0002790 182.7450 177.3774 15.27804000 34923
UMBRA-12                
1 67371U 26004J   26197.26370070  .00002202  00000+0  23671-3 0  9993
2 67371  97.8023 195.6354 0007349  50.0323 310.1539 14.89536604 27630
