{"fetched_at":"2026-07-16T17:47:05.343Z","source":"https://celestrak.org/NORAD/elements/gp.php?NAME=UMBRA&FORMAT=JSON","constellation":"umbra","records":[{"OBJECT_NAME":"UMBRA-07","OBJECT_ID":"2023-174AT","EPOCH":"2026-07-16T03:24:50.005152","CLASSIFICATION_TYPE":"U","MEAN_MOTION":15.0962939,"ECCENTRICITY":0.00021979,"INCLINATION":97.3779,"RA_OF_ASC_NODE":251.8154,"ARG_OF_PERICENTER":17.9138,"MEAN_ANOMALY":342.2169,"EPHEMERIS_TYPE":0,"NORAD_CAT_ID":58297,"ELEMENT_SET_NO":999,"REV_AT_EPOCH":14778,"BSTAR":0.00027425581,"MEAN_MOTION_DOT":0.0000435,"MEAN_MOTION_DDOT":0},{"OBJECT_NAME":"UMBRA-09","OBJECT_ID":"2024-149CB","EPOCH":"2026-07-16T04:39:26.936064","CLASSIFICATION_TYPE":"U","MEAN_MOTION":15.1886859,"ECCENTRICITY":0.00020698,"INCLINATION":97.6973,"RA_OF_ASC_NODE":284.9133,"ARG_OF_PERICENTER":200.1569,"MEAN_ANOMALY":159.9583,"EPHEMERIS_TYPE":0,"NORAD_CAT_ID":60541,"ELEMENT_SET_NO":999,"REV_AT_EPOCH":10512,"BSTAR":0.00042666317,"MEAN_MOTION_DOT":0.00008827,"MEAN_MOTION_DDOT":0},{"OBJECT_NAME":"UMBRA-10","OBJECT_ID":"2024-149CH","EPOCH":"2026-07-16T04:38:47.631840","CLASSIFICATION_TYPE":"U","MEAN_MOTION":15.1886708,"ECCENTRICITY":0.00016907,"INCLINATION":97.6979,"RA_OF_ASC_NODE":284.9427,"ARG_OF_PERICENTER":165.4264,"MEAN_ANOMALY":194.7019,"EPHEMERIS_TYPE":0,"NORAD_CAT_ID":60547,"ELEMENT_SET_NO":999,"REV_AT_EPOCH":10513,"BSTAR":0.00041673228,"MEAN_MOTION_DOT":0.0000862,"MEAN_MOTION_DDOT":0},{"OBJECT_NAME":"UMBRA-11","OBJECT_ID":"2025-276CL","EPOCH":"2026-07-16T05:10:14.093760","CLASSIFICATION_TYPE":"U","MEAN_MOTION":15.27804,"ECCENTRICITY":0.00027902,"INCLINATION":97.4189,"RA_OF_ASC_NODE":271.6866,"ARG_OF_PERICENTER":182.745,"MEAN_ANOMALY":177.3774,"EPHEMERIS_TYPE":0,"NORAD_CAT_ID":66748,"ELEMENT_SET_NO":999,"REV_AT_EPOCH":3492,"BSTAR":0.00041947411,"MEAN_MOTION_DOT":0.00011323,"MEAN_MOTION_DDOT":0},{"OBJECT_NAME":"UMBRA-12","OBJECT_ID":"2026-004J","EPOCH":"2026-07-16T06:19:43.740480","CLASSIFICATION_TYPE":"U","MEAN_MOTION":14.89536604,"ECCENTRICITY":0.00073495,"INCLINATION":97.8023,"RA_OF_ASC_NODE":195.6354,"ARG_OF_PERICENTER":50.0323,"MEAN_ANOMALY":310.1539,"EPHEMERIS_TYPE":0,"NORAD_CAT_ID":67371,"ELEMENT_SET_NO":999,"REV_AT_EPOCH":2763,"BSTAR":0.00023670724,"MEAN_MOTION_DOT":0.00002202,"MEAN_MOTION_DDOT":0}]}
